HST                     
1 20580U 90037B   26198.19509067  .00003225  00000+0  96969-4 0  9991
2 20580  28.4720 235.4292 0002183 123.0832 236.9973 15.31072955793174
POLAR                   
1 23802U 96013A   26196.53578426  .00000188  00000+0  00000+0 0  9993
2 23802  79.8926 226.7156 6498828 208.1023  91.7323  1.29846063145237
SWAS                    
1 25560U 98071A   26197.96408022  .00001569  00000+0  10348-3 0  9998
2 25560  69.8942 150.7213 0007820 228.6188 131.4305 15.09753674501762
CXO                     
1 25867U 99040B   26201.11320750  .00000551  00000+0  00000+0 0  9999
2 25867  56.6395 115.7468 7780936 310.0076   0.5342  0.37805980 17443
XMM-NEWTON              
1 25989U 99066A   26199.26509818 -.00000005  00000+0  00000+0 0  9993
2 25989  64.3180 282.5861 4665036  64.3602 359.9798  0.50127855 23154
TERRA                   
1 25994U 99068A   26198.14186242  .00000174  00000+0  44393-4 0  9993
2 25994  97.9440 246.4979 0003485 118.8743 261.9090 14.61124589413980
CLUSTER II-FM7 (SAMBA)  
1 26410U 00041A   26197.13957185  .00051232 -58450-4  00000+0 0  9991
2 26410 149.8273  56.2567 9088690 273.7641 359.2168  0.44844033 20444
CLUSTER II-FM8 (TANGO)  
1 26464U 00045B   26195.45112017  .00019821  00000+0  00000+0 0  9994
2 26464 150.0407  57.1141 9091460 274.4512   1.9889  0.44421596 20433
ODIN                    
1 26702U 01007A   26198.06838138  .00291443  33379-4  95323-3 0  9995
2 26702  97.3705 241.2154 0005205 152.9850 207.1695 15.90578805394128
TIMED                   
1 26998U 01055B   26197.37890833  .00000530  00000+0  51686-4 0  9998
2 26998  74.0666 176.2385 0002266 299.5266  60.5692 14.95345803335182
CORIOLIS                
1 27640U 03001A   26198.00382419  .00000034  00000+0  36676-4 0  9994
2 27640  98.7135 204.4341 0014980 124.2570 236.0028 14.19952170218455
SORCE                   
1 27651U 03004A   26198.15709603  .00001244  00000+0  99493-4 0  9993
2 27651  39.9913  90.6665 0018772 267.5822  92.2823 15.03847260276418
MOST                    
1 27843U 03031D   26197.91867115  .00000009  00000+0  24042-4 0  9998
2 27843  98.7053 205.2304 0010194 160.2385 199.9189 14.21327907194932
SCISAT 1                
1 27858U 03036A   26197.87081888  .00000263  00000+0  38301-4 0  9994
2 27858  73.9301 112.3657 0007287 179.9924 180.1254 14.81480007235841
SWIFT                   
1 28485U 04047A   26197.60848711  .00041559  00000+0  30413-3 0  9999
2 28485  20.5526 317.4567 0002327  39.5512 320.5104 15.71279814191495
HINODE (SOLAR-B)        
1 29479U 06041A   26198.02676683  .00000276  00000+0  55830-4 0  9995
2 29479  98.0548 213.7394 0017179 188.5760 171.5155 14.68659521 59259
SHIJIAN-6 02A (SJ-6 02A)
1 29505U 06046A   26198.16777142  .00002383  00000+0  12319-3 0  9992
2 29505  97.6340 239.4631 0004232  59.9912 300.1741 15.17258079 76819
SHIJIAN-6 02B (SJ-6 02B)
1 29506U 06046B   26198.20348883  .00000265  00000+0  25259-4 0  9999
2 29506  97.7138 227.0760 0013165 329.2294  30.8157 15.01439148 75248
FGRST (GLAST)           
1 33053U 08029A   26197.82342097  .00001930  00000+0  63774-4 0  9996
2 33053  25.5830 358.6806 0007837 319.2745  40.7207 15.24082163   216
SDO                     
1 36395U 10005A   26196.34409457 -.00000103  00000+0  00000+0 0  9995
2 36395  34.7081  85.9138 0001835  46.0485 182.8654  1.00277108 60342
CRYOSAT 2               
1 36508U 10013A   26198.19963023  .00000110  00000+0  26495-4 0  9997
2 36508  92.0358 284.5978 0002417  98.7416 261.4065 14.51898846862434
X-SAT                   
1 37389U 11015C   26198.20313514  .00000110  00000+0  64515-4 0  9999
2 37389  98.3528 173.8000 0012721 254.4990 105.4786 14.25214208791953
GCOM-W1 (SHIZUKU)       
1 38337U 12025A   26197.83465697  .00000194  00000+0  53184-4 0  9995
2 38337  98.2023 137.9420 0001299  78.3115 340.1265 14.57090956753352
NUSTAR                  
1 38358U 12031A   26198.25002315  .00006799  00000+0  36364-3 0  9993
2 38358   6.0251 168.5742 0008496 201.9691 200.0095 15.09047759  1308
NEOSSAT                 
1 39089U 13009D   26197.96557152  .00000043  00000+0  29614-4 0  9999
2 39089  98.4192  17.2921 0011550 152.1982 207.9824 14.35836025701014
BRITE-AUSTRIA           
1 39091U 13009F   26197.94936880  .00000067  00000+0  37191-4 0  9994
2 39091  98.4010  16.6507 0010858 145.7302 214.4587 14.36552927701323
IRIS                    
1 39197U 13033A   26197.99643375  .00000507  00000+0  64300-4 0  9998
2 39197  97.9319  37.1795 0023449 218.8102 141.1430 14.85938950704800
HISAKI (SPRINT-A)       
1 39253U 13049A   26198.10340782  .00000090  00000+0  31566-4 0  9993
2 39253  29.7215  67.9110 0136986 259.3468  99.1650 13.55546838635488
CASSIOPE                
1 39265U 13055A   26198.11751382  .00016400 -54264-6  17530-3 0  9991
2 39265  80.9127  30.2969 0282576 321.3554  36.7748 15.27489214672234
STSAT-3                 
1 39422U 13066G   26198.14155906  .00001787  00000+0  13760-3 0  9995
2 39422  97.6195 167.5466 0008875 297.6315  62.4008 15.02892985688703
SWARM B                 
1 39451U 13067A   26198.18140786  .00001938  00000+0  68151-4 0  9995
2 39451  87.7461 333.2053 0002258  84.1222 276.0284 15.28724665687828
